     3.02           N: GNSS NAV DATA    G: GPS              RINEX VERSION / TYPE
GNSS-SDR            suhjw               20250806 055300 UTC PGM / RUN BY / DATE 
GPS NAVIGATION MESSAGE FILE GENERATED BY GNSS-SDR           COMMENT             
GNSS-SDR VERSION 0.0.20                                     COMMENT             
See https://gnss-sdr.org                                    COMMENT             
GPSA    .0000D+00   .0000D+00   .0000D+00   .0000D+00       IONOSPHERIC CORR    
GPSB    .0000D+00   .0000D+00   .0000D+00   .0000D+00       IONOSPHERIC CORR    
GPUT   .0000000000D+00  .000000000D+00      0 2378          TIME SYSTEM CORR    
     0     0     0     0                                    LEAP SECONDS        
                                                            END OF HEADER       
G05 2025 08 06 06 00 00 -.216606073081D-03 -.909494701773D-12  .000000000000D+00
      .480000000000D+02 -.700000000000D+02  .421160400164D-08  .150231806777D+01
     -.386126339436D-05  .580505828839D-02  .147148966789D-05  .515359822273D+04
      .280800000000D+06  .372529029846D-07  .153755612310D+01 -.763684511185D-07
      .977083036345D+00  .363843750000D+03  .141262477118D+01 -.820569894316D-08
     -.215008955986D-09  .100000000000D+01  .237800000000D+04  .100000000000D+01
      .000000000000D+00  .000000000000D+00 -.107102096081D-07  .480000000000D+02
      .280398000000D+06  .000000000000D+00                                      
G13 2025 08 06 06 00 00  .700225122273D-03 -.341060513165D-12  .000000000000D+00
      .430000000000D+02 -.844062500000D+02  .387837583564D-08  .940881193033D+00
     -.444240868092D-05  .956022460014D-02  .997632741928D-05  .515368859673D+04
      .280800000000D+06 -.104308128357D-06  .277785670052D+01  .614672899246D-07
      .974806116999D+00  .196437500000D+03  .978908171477D+00 -.771282126996D-08
      .215366113720D-09  .100000000000D+01  .237800000000D+04  .100000000000D+01
      .000000000000D+00  .000000000000D+00 -.116415321827D-07  .430000000000D+02
      .280398000000D+06  .000000000000D+00                                      
G15 2025 08 06 06 00 00  .325025524944D-03  .386535248253D-11  .000000000000D+00
      .150000000000D+02 -.105031250000D+03  .472948271622D-08  .185748698093D+00
     -.542216002941D-05  .165667661931D-01  .807270407677D-05  .515361990929D+04
      .280800000000D+06 -.324100255966D-06  .246677670919D+01 -.931322574615D-08
      .940267797334D+00  .218281250000D+03  .144418136976D+01 -.831391773662D-08
      .471448209139D-10  .100000000000D+01  .237800000000D+04  .100000000000D+01
      .000000000000D+00  .000000000000D+00 -.102445483208D-07  .150000000000D+02
      .280398000000D+06  .000000000000D+00                                      
G23 2025 08 06 06 00 00  .522513873875D-03  .602540239925D-11  .000000000000D+00
      .780000000000D+02 -.684062500000D+02  .386408952627D-08 -.188407776406D+01
     -.347383320332D-05  .548932980746D-02  .215880572796D-05  .515366472626D+04
      .280800000000D+06 -.763684511185D-07  .156097047513D+01 -.894069671631D-07
      .985001253073D+00  .351875000000D+03 -.284727042104D+01 -.788604277105D-08
     -.696457581682D-10  .100000000000D+01  .237800000000D+04  .100000000000D+01
      .000000000000D+00  .000000000000D+00 -.838190317154D-08  .846000000000D+03
      .280398000000D+06  .000000000000D+00                                      
G24 2025 08 06 06 00 00 -.338710844517D-03  .102318153949D-10  .000000000000D+00
      .920000000000D+02  .540625000000D+01  .530022077547D-08 -.661279124541D+00
      .571832060814D-06  .170756089501D-01  .808015465736D-05  .515366390228D+04
      .280800000000D+06 -.391155481339D-07 -.270977243459D+01  .253319740295D-06
      .934710369044D+00  .214906250000D+03  .107944369669D+01 -.846606693138D-08
      .582881422208D-09  .100000000000D+01  .237800000000D+04  .100000000000D+01
      .000000000000D+00  .000000000000D+00  .232830643654D-08  .920000000000D+02
      .280578000000D+06  .000000000000D+00                                      
G18 2025 08 06 06 00 00 -.580603256822D-03  .750333128963D-11  .000000000000D+00
      .740000000000D+02  .926875000000D+02  .414231540121D-08 -.828868681959D+00
      .470876693726D-05  .545440544374D-02  .387057662010D-05  .515368445969D+04
      .280800000000D+06  .122934579849D-06  .556472684601D+00 -.502914190292D-07
      .973444560125D+00  .313093750000D+03 -.293719405847D+01 -.801283376669D-08
      .314298806093D-10  .100000000000D+01  .237800000000D+04  .100000000000D+01
      .000000000000D+00  .000000000000D+00 -.838190317154D-08  .586000000000D+03
      .280578000000D+06  .000000000000D+00                                      
G22 2025 08 06 05 59 44 -.982829369605D-04  .136424205266D-11  .000000000000D+00
      .460000000000D+02  .812500000000D+00  .486698844389D-08  .173670006131D+01
     -.260770320892D-07  .130191390635D-01  .638887286186D-05  .515363976097D+04
      .280784000000D+06  .262632966042D-06 -.146726408996D+01 -.298023223877D-07
      .958145883651D+00  .253750000000D+03 -.105266656267D+01 -.784068373881D-08
     -.428589281035D-09  .100000000000D+01  .237800000000D+04  .100000000000D+01
      .000000000000D+00  .000000000000D+00 -.111758708954D-07  .460000000000D+02
      .280578000000D+06  .000000000000D+00                                      
G14 2025 08 06 06 00 00  .681149773300D-03  .454747350886D-11  .000000000000D+00
      .310000000000D+02  .656250000000D+00  .526879089486D-08 -.252016123632D+01
     -.633299350739D-07  .607518909965D-02  .643171370029D-05  .515363333702D+04
      .280800000000D+06 -.111758708954D-07 -.153922086389D+01 -.176951289177D-06
      .942821793364D+00  .248656250000D+03 -.276921220494D+01 -.815962559544D-08
     -.284297556420D-09  .100000000000D+01  .237800000000D+04  .100000000000D+01
      .000000000000D+00  .000000000000D+00 -.791624188423D-08  .287000000000D+03
      .280578000000D+06  .000000000000D+00                                      
G21 2025 08 06 06 00 00  .159817747772D-03  .255795384874D-10  .000000000000D+00
      .270000000000D+02 -.812187500000D+02  .453197448921D-08  .235115064416D+01
     -.422820448875D-05  .138101517223D-03  .140070915222D-05  .515364700317D+04
      .280800000000D+06  .447034835815D-07  .160710493826D+01  .447034835815D-07
      .959787122666D+00  .353593750000D+03  .104141197547D+01 -.837284876276D-08
     -.168935608275D-09  .100000000000D+01  .237800000000D+04  .100000000000D+01
      .000000000000D+00  .000000000000D+00 -.838190317154D-08  .795000000000D+03
      .280578000000D+06  .000000000000D+00                                      
